RTD LFLY 282300Z 2900/2924 36008KT 9999 OVC010 PROB30 TEMPO 2903/2909 3000 BR OVC005 PROB40 TEMPO 2909/2913 SCT015 BECMG 2913/2915 BKN030 TEMPO 2915/2924 BKN015=
AMD LFLY 290532Z 2906/3006 36008KT 9999 OVC007 PROB40 TEMPO 2906/2909 3000 BR OVC005 TEMPO 2909/2913 SCT015 BECMG 2913/2915 BKN030 BECMG 2918/2920 BKN015 BECMG 3001/3003 3000 BR OVC008 PROB40 TEMPO 3003/3006 0600 FG VV/// TEMPO 3003/3006 DZ=
LFLY 291100Z 2912/3012 36008KT 8000 OVC010 TEMPO 2912/2920 9999 OVC015 BECMG 3001/3003 3000 BR OVC008 TEMPO 3003/3008 OVC003 TEMPO 3000/3009 DZ BECMG 3010/3012 36010KT OVC012=

RTD LFPO 282300Z 2900/3006 22008KT 9999 BKN025 TEMPO 2900/3003 BKN012 PROB40 TEMPO 2902/2911 3000 -DZ BR BKN006 PROB40 TEMPO 2919/3002 2000 -RADZ BKN006=
AMD LFPO 290403Z 2904/3006 24008KT 6000 OVC007 TEMPO 2904/2909 3000 -DZ BR OVC004 TEMPO 2912/2920 OVC012 BECMG 2920/2922 BKN012 TEMPO 2922/3001 4000 -RA BKN008 BECMG 3003/3005 32005KT SCT030=
LFPO 290500Z 2906/3012 24008KT 6000 OVC007 TEMPO 2906/2909 3000 -DZ BR OVC004 TEMPO 2912/2920 OVC012 BECMG 2920/2922 BKN012 TEMPO 2922/3001 4000 -RA BKN008 BECMG 3003/3005 32005KT SCT030=
RTD LFPO 291100Z 2912/3018 24010KT 9999 BKN012 TEMPO 2912/2919 OVC008 PROB30 TEMPO 2912/2919 2500 -DZ OVC004 TEMPO 2919/2924 3500 -RA OVC006 BECMG 3000/3002 SCT030 PROB30 TEMPO 3002/3004 BKN012=
LFPO 291700Z 2918/3024 24007KT 9999 BKN017 TEMPO 2918/2924 3500 -RA OVC008 PROB30 TEMPO 2919/2923 2000 -RADZ OVC004 BECMG 3000/3002 SCT030 PROB30 TEMPO 3021/3024 BKN006=

